ONEWEB-0414             
1 50491U 21132Y   24195.79540556  .00000026  00000+0  33902-4 0  9998
2 50491  87.9145 115.4834 0002329  80.4372 279.7023 13.18687532128927
ONEWEB-0417             
1 50492U 21132Z   24195.80329888  .00001002  00000+0  25083-2 0  9998
2 50492  87.9154 115.4864 0001988  86.3616 273.7743 13.18697661128902
ONEWEB-0418             
1 50493U 21132AA  24195.81266996  .00000062  00000+0  12519-3 0  9996
2 50493  87.9150 115.4868 0001958  93.0645 267.0711 13.18686827128966
ONEWEB-0419             
1 50494U 21132AB  24195.83020057  .00000024  00000+0  28641-4 0  9997
2 50494  87.9144 115.4996 0001716  82.5410 277.5917 13.18685150128880
ONEWEB-0420             
1 50495U 21132AC  24195.79699362  .00000026  00000+0  34249-4 0  9997
2 50495  87.9146 115.5150 0002160  69.4458 290.6906 13.18687319128878
ONEWEB-0421             
1 50496U 21132AD  24195.79067168  .00000075  00000+0  15804-3 0  9990
2 50496  87.9155 115.4842 0002462  79.7578 280.3832 13.18688341128913
ONEWEB-0424             
1 50497U 21132AE  24195.82544545  .00000006  00000+0 -17330-4 0  9996
2 50497  87.9148 115.4818 0001459  79.2697 280.8599 13.18686004128943
ONEWEB-0426             
1 50498U 21132AF  24195.78750591 -.00000044  00000+0 -14511-3 0  9992
2 50498  87.9143 115.5055 0002399  92.7512 267.3895 13.18687619128888
